OSCAR 7 (AO-7)          
1 07530U 74089B   20011.15397203 -.00000052  00000-0 -42244-4 0  9996
2 07530 101.7772 341.9289 0012081 310.1505 116.6182 12.53641541 66396
UOSAT 2 (UO-11)         
1 14781U 84021B   20010.81301474  .00000075  00000-0  15259-4 0  9995
2 14781  97.5977  30.6157 0008679  12.9295 347.2141 14.83134062929315
LUSAT (LO-19)           
1 20442U 90005G   20010.79769545 -.00000012  00000-0  11922-4 0  9994
2 20442  98.6738 317.6798 0010654 261.8377  98.1598 14.32942436565831
ITAMSAT (IO-26)         
1 22826U 93061D   20010.71425793 -.00000012  00000-0  13119-4 0  9993
2 22826  98.9120   9.1769 0009940 105.8985 254.3292 14.30410024371356
RADIO ROSTO (RS-15)     
1 23439U 94085A   20010.89862276 -.00000077  00000-0 -99823-3 0  9998
2 23439  64.8154 142.6592 0146069  72.8186 288.8670 11.27569276 31142
JAS-2 (FO-29)           
1 24278U 96046B   20010.78094308 -.00000045  00000-0 -12283-4 0  9991
2 24278  98.5650 141.5485 0351270  65.9177 297.8292 13.53095188155675
TECHSAT 1B (GO-32)      
1 25397U 98043D   20011.10411336 -.00000019  00000-0  10838-4 0  9998
2 25397  98.7124 313.9519 0001939 126.2966 233.8392 14.23677435117241
ISS (ZARYA)             
1 25544U 98067A   20011.58651957  .00000308  00000-0  13570-4 0  9991
2 25544  51.6459  48.2840 0005146 121.0229  28.8854 15.49551704207589
PCSAT (NO-44)           
1 26931U 01043C   20010.81639439 -.00000057  00000-0  98269-5 0  9997
2 26931  67.0495 191.7714 0006748 263.1465  96.8868 14.30564148954386
SAUDISAT 1C (SO-50)     
1 27607U 02058C   20011.12104596 -.00000007  00000-0  19748-4 0  9990
2 27607  64.5548 138.4575 0066973 215.4480 144.2164 14.75601540917499
CUTE-1 (CO-55)          
1 27844U 03031E   20010.78867772  .00000041  00000-0  38009-4 0  9996
2 27844  98.6833  20.9089 0010366 149.7610 210.4167 14.22215255857545
CUBESAT XI-IV (CO-57)   
1 27848U 03031J   20010.83977970  .00000023  00000-0  30247-4 0  9994
2 27848  98.6906  21.4978 0010060 160.9372 199.2184 14.21805245857405
MOZHAYETS 4 (RS-22)     
1 27939U 03042A   20011.40207990 -.00000023  00000-0  44794-5 0  9993
2 27939  98.0667 148.5616 0014111 130.6779 229.5665 14.66829330870844
CUBESAT XI-V            
1 28895U 05043F   20011.09573435  .00000110  00000-0  29857-4 0  9991
2 28895  97.9853 152.1276 0017870  62.8242 297.4780 14.63728471757678
CUTE-1.7+APD II (CO-65) 
1 32785U 08021C   20011.41772091  .00000185  00000-0  25615-4 0  9998
2 32785  97.5609   6.5084 0011745 301.0724  58.9340 14.88401865634435
DELFI-C3 (DO-64)        
1 32789U 08021G   20010.36778617  .00000803  00000-0  57014-4 0  9990
2 32789  97.4400  58.5765 0013288 136.7441 223.4833 15.07377288637941
SEEDS II (CO-66)        
1 32791U 08021J   20010.75050738  .00000387  00000-0  44534-4 0  9993
2 32791  97.5332  11.9947 0011833 271.9468  88.0395 14.90949625634732
YUBILEINY (RS-30)       
1 32953U 08025A   20011.40756890  .00000037  00000-0  19437-3 0  9997
2 32953  82.5036  16.2025 0020122  41.2163 319.0434 12.43093605527997
KKS-1 (KISEKI)          
1 33499U 09002H   20011.51293159  .00000096  00000-0  22130-4 0  9995
2 33499  98.3319 221.6509 0007896 268.3787  91.6517 14.75495140589729
SWISSCUBE               
1 35932U 09051B   20011.47261597  .00000106  00000-0  34950-4 0  9994
2 35932  98.6003 188.7358 0006647 248.4162 111.6327 14.56347714546873
BEESAT-1                
1 35933U 09051C   20011.46347054  .00000074  00000-0  27768-4 0  9990
2 35933  98.6014 190.5608 0004750 263.3063  96.7594 14.56429003546987
ITUPSAT1                
1 35935U 09051E   20010.74726971  .00000072  00000-0  27811-4 0  9998
2 35935  98.6123 190.0419 0007048 264.1985  95.8408 14.55580804546586
XIWANG-1 (HOPE-1)       
1 36122U 09072B   20010.78417323 -.00000022  00000-0  53677-4 0  9997
2 36122 100.0821   8.5390 0007007 226.7660 133.2875 13.16353035483998
JUGNU                   
1 37839U 11058B   20011.07972547  .00000288  00000-0  11778-4 0  9996
2 37839  19.9595 163.1977 0018987  82.1146  75.0899 14.12668628426474
SRMSAT                  
1 37841U 11058D   20011.28376711  .00000294  00000-0  16335-4 0  9994
2 37841  19.9704 223.0174 0011805 306.2568 210.4633 14.10647613425901
M-CUBED & EXP-1 PRIME   
1 37855U 11061F   20011.26809512  .00000521  00000-0  33900-4 0  9991
2 37855 101.7267  18.0965 0172123 184.2683 175.7071 15.05929779447862
STRAND-1                
1 39090U 13009E   20011.37155431  .00000044  00000-0  30525-4 0  9994
2 39090  98.4675 218.6605 0009871  40.1585 320.0328 14.35113716360030
SOMP                    
1 39134U 13015E   20010.44232876  .00001449  00000-0  73968-4 0  9994
2 39134  64.8633  73.6169 0037965 270.1637  89.5140 15.20644890371872
BEESAT-3                
1 39135U 13015F   20011.32834198  .00001084  00000-0  62026-4 0  9996
2 39135  64.8666  91.9820 0044815 271.3877  88.2115 15.17847966371601
BEESAT-2                
1 39136U 13015G   20010.85108432  .00000922  00000-0  55599-4 0  9996
2 39136  64.8716  97.9732 0031014 279.8189  79.9436 15.17268833371054
ZACUBE-1 (TSHEPISOSAT)  
1 39417U 13066B   20010.75204473  .00000197  00000-0  30877-4 0  9991
2 39417  97.5611  17.6520 0060367  78.6644 282.1344 14.81204535331546
GOMX-1                  
1 39430U 13066Q   20011.55953613  .00000185  00000-0  42905-4 0  9994
2 39430  97.7728 319.7813 0150415 322.5667  36.5121 14.59337373326778
CUBEBUG-2 (LO-74)       
1 39440U 13066AA  20010.92181063  .00000173  00000-0  30765-4 0  9995
2 39440  97.6160   2.3341 0081172 134.3274 226.4629 14.75941291329195
FUNCUBE-1 (AO-73)       
1 39444U 13066AE  20011.11030820  .00000252  00000-0  37129-4 0  9994
2 39444  97.5572  20.1177 0059423  70.6472 290.1154 14.82042395330509
UWE-3                   
1 39446U 13066AG  20011.45260947  .00000186  00000-0  31147-4 0  9998
2 39446  97.5882  10.0153 0071403 105.0527 255.8600 14.78476528329813
SPROUT                  
1 39770U 14029E   20011.55601487  .00000718  00000-0  85061-4 0  9992
2 39770  97.8914 118.6339 0009757 121.7715 238.4425 14.87572309305584
UNISAT-6                
1 40012U 14033C   20010.83725183  .00000154  00000-0  30139-4 0  9998
2 40012  97.7291 233.2419 0058892 151.3632 209.0833 14.74054275299050
DUCHIFAT-1              
1 40021U 14033M   20010.88308224  .00000495  00000-0  56172-4 0  9999
2 40021  97.9347 301.2471 0014282  89.8376 270.4478 14.90783254302262
QB50P1                  
1 40025U 14033R   20010.87218022  .00000264  00000-0  34009-4 0  9997
2 40025  97.9118 295.2495 0013791  99.7963 260.4811 14.89051290301496
NUDT-PHONESAT           
1 40900U 15049B   20011.53660507  .00002016  00000-0  87357-4 0  9991
2 40900  97.4336  23.8966 0012810 171.4933 344.6854 15.23493303239147
ZDPS 2A                 
1 40901U 15049C   20011.55186600  .00000892  00000-0  47127-4 0  9992
2 40901  97.4609  19.4328 0012653 196.7079 279.2305 15.18020708238614
ZDPS 2B                 
1 40902U 15049D   20011.53051387  .00001245  00000-0  64562-4 0  9999
2 40902  97.4571  16.7520 0012819 193.9453 284.3670 15.17942319238584
XW-2A                   
1 40903U 15049E   20011.58562521  .00001873  00000-0  45057-4 0  9997
2 40903  97.3120  60.2681 0015042 112.9376  48.7735 15.42512179242137
KAITUO 1A               
1 40904U 15049F   20011.54765127  .00000691  00000-0  39855-4 0  9997
2 40904  97.4720  15.0988 0013659 205.7744 311.1918 15.15565905238326
2015-049G               
1 40905U 15049G   20011.23045345  .00000200  00000-0  14462-4 0  9990
2 40905  97.4784  12.1307 0014840 202.6701 213.7982 15.14434256238132
XW-2C                   
1 40906U 15049H   20011.56342090  .00000421  00000-0  25443-4 0  9990
2 40906  97.4721  15.2996 0014154 196.1782 278.5620 15.15889288238336
XW-2D                   
1 40907U 15049J   20011.58105940  .00000584  00000-0  33728-4 0  9999
2 40907  97.4709  15.0051 0013626 192.7954 286.4344 15.16100032238356
LILACSAT-2              
1 40908U 15049K   20011.55188977  .00000360  00000-0  23468-4 0  9990
2 40908  97.4851  13.5468 0015109 202.1618 273.2954 15.13931932238103
XW-2F                   
1 40910U 15049M   20011.53903409  .00001117  00000-0  58756-4 0  9995
2 40910  97.4650  17.2897 0014358 184.0155 295.2312 15.17644483238387
XW-2B                   
1 40911U 15049N   20011.55827397  .00000587  00000-0  33949-4 0  9996
2 40911  97.4728  15.6651 0013486 193.6704 290.3942 15.16027870238245
KAITUO 1B               
1 40912U 15049P   20011.58295922  .00000994  00000-0  49244-4 0  9990
2 40912  97.4493  21.2949 0015183 164.3199 318.4557 15.19997718238735
TIANWANG 1C (TW-1C)     
1 40926U 15051B   20011.49575469  .00015488  00000-0  19014-3 0  9990
2 40926  97.1096  62.6711 0005368 333.2095 134.8148 15.60375008242355
TIANWANG 1A (TW-1A)     
1 40928U 15051D   20011.54832587  .00002615  00000-0  63598-4 0  9990
2 40928  97.1262  43.1588 0012171  49.6344 103.3600 15.41792312241031
LAPAN-A2                
1 40931U 15052B   20008.73385127  .00000640  00000-0  00000+0 0  9995
2 40931   5.9917  41.4791 0013162 160.0202 200.3725 14.76621920231463
E-ST@R-II               
1 41459U 16025D   20011.55003037  .00001428  00000-0  76123-4 0  9992
2 41459  98.0989 113.4795 0166184  23.4979 337.3718 15.05974835203675
AAUSAT 4                
1 41460U 16025E   20011.25461168  .00001607  00000-0  82877-4 0  9996
2 41460  98.0955 114.9741 0156292  15.0567 345.5234 15.08077644203798
NUSAT-1 (FRESCO)        
1 41557U 16033B   20011.47309293  .00001210  00000-0  47464-4 0  9999
2 41557  97.4106 102.7448 0012079 289.1596  70.8335 15.27655184201650
BEESAT-4                
1 41619U 16040W   20010.64189587  .00001283  00000-0  56464-4 0  9996
2 41619  97.3427  73.7763 0011785  27.4167 332.7689 15.23600826185215
CAS-2T & KS-1Q          
1 41847U 16066G   20011.40259658  .00000055  00000-0  19212-4 0  9995
2 41847  98.6791  60.1250 0365364 339.9237  18.7884 14.38033081166700
NAYIF-1 (EO-88)         
1 42017U 17008BX  20011.28432567  .00001489  00000-0  60630-4 0  9992
2 42017  97.3807  81.0314 0007015 148.3810 211.7851 15.26049564161426
MAX VALIER SAT          
1 42778U 17036P   20010.94619594  .00000867  00000-0  40544-4 0  9997
2 42778  97.3286  68.7838 0011432 213.1301 146.9220 15.22343747141612
RADFXSAT (FOX-1B)       
1 43017U 17073E   20010.72313770  .00000340  00000-0  32218-4 0  9993
2 43017  97.7268 289.0575 0256794 207.1738 151.5842 14.78768170115702
FOX-1D (AO-92)          
1 43137U 18004AC  20011.44020542  .00000978  00000-0  43577-4 0  9990
2 43137  97.4654  83.5463 0007721 246.7159 113.3265 15.23817914110975
ES'HAIL 2               
1 43700U 18090A   20011.42132839  .00000152  00000-0  00000+0 0  9995
2 43700   0.0167  78.2915 0002201 242.0647 327.5070  1.00272476  4368
FOX-1CLIFF (AO-95)      
1 43770U 18099N   20011.14299603  .00000623  00000-0  62352-4 0  9999
2 43770  97.7250  85.1455 0014658  11.5810 348.5745 14.94887814 60265
ITASAT 1                
1 43786U 18099AE  20011.44423317 -.00000179  00000-0 -11031-4 0  9996
2 43786  97.7265  85.7479 0015224   3.9888 356.1451 14.95242665 60326
JY1SAT (JO-97)          
1 43803U 18099AX  20011.47632470  .00000666  00000-0  65439-4 0  9991
2 43803  97.7224  85.6391 0015034   4.7051 355.4308 14.95397193 60323
PSAT2 (NO-104)          
1 44354U 19036R   20011.05023292  .00011774  00000-0  17663-3 0  9992
2 44354  28.5307 338.6124 0375891  63.0529 300.7948 15.00602253 29974
BRICSAT2 (NO-103)       
1 44355U 19036S   20010.62508501  .00021754  00000-0  32241-3 0  9994
2 44355  28.5314 339.0722 0364536  62.3332 301.3767 15.03417653 29933
JAISAT-1                
1 44419U 19038F   20011.38818927  .00000860  00000-0  52937-4 0  9997
2 44419  97.5178 335.0823 0020722 319.0687  40.8987 15.12517266 28701
DUCHIFAT-3              
1 44854U 19089C   20011.56031900  .00000319  00000-0  32324-4 0  9991
2 44854  36.9695 311.3820 0008835 230.7131 129.2848 14.98946957  4598
